satname,norad_id,inclination_deg,eccentricity,mean_motion_rev_per_day,perigee_km,apogee_km,l1,l2
STARLINK-1540,46051,53.1599,0.0001404,15.30195413,474.2665528552625,476.1909779621892,1 46051U 20055AA  26104.80301985  .00004561  00000+0  16605-3 0  9991,2 46051  53.1599 306.1014 0001404  95.6448 264.4713 15.30195413314614
STARLINK-1541,46052,53.1601,0.0001103,15.44827827,431.13287009386204,432.6351607298611,1 46052U 20055AB  26104.91668980  .01109818  00000+0  21327-1 0  9992,2 46052  53.1601 305.1171 0001103  76.2405 142.1334 15.44827827  5654
STARLINK-1543,46053,53.161,0.0001456,15.30192024,474.24103289231334,476.23673594985576,1 46053U 20055AC  26104.86411906  .00001207  00000+0  52898-4 0  9993,2 46053  53.1610 305.8831 0001456  90.6087 269.5081 15.30192024314613
STARLINK-1548,46054,53.1594,0.0001287,15.3020031,474.33211752314855,476.09617010756756,1 46054U 20055AD  26104.80617300 -.00001628  00000+0 -42838-4 0  9996,2 46054  53.1594 306.1549 0001287  95.0411 265.0736 15.30200310314602
STARLINK-1554,46055,53.1588,0.0001541,15.316921,469.7081292418252,471.8189603897381,1 46055U 20055AE  26104.91668980  .00020383  00000+0  66697-3 0  9994,2 46055  53.1588 305.7297 0001541  74.2080 206.7693 15.31692100  5823
STARLINK-1564,46058,53.1597,0.0001087,15.30200798,474.4677276252514,475.95764584714743,1 46058U 20055AH  26104.80203838  .00001825  00000+0  73726-4 0  9994,2 46058  53.1597 306.6314 0001087  93.8242 266.2883 15.30200798314594
STARLINK-1570,46059,53.1599,0.0001362,15.31693856,469.8254906899074,471.69112977241457,1 46059U 20055AJ  26104.91668980  .00021945  00000+0  71698-3 0  9990,2 46059  53.1599 305.6112 0001362  74.6973  52.0602 15.31693856  5663
STARLINK-1572,46060,53.1577,0.0001126,15.30215147,474.39816123006676,475.9415259312409,1 46060U 20055AK  26104.84834750  .00005995  00000+0  21428-3 0  9997,2 46060  53.1577 306.1647 0001126 106.4714 253.6410 15.30215147314576
STARLINK-1573,46061,53.1593,0.00016,15.3167715,469.71227951570563,471.90394195114095,1 46061U 20055AL  26104.91668980  .00032049  00000+0  10408-2 0  9991,2 46061  53.1593 305.5810 0001600  77.4429 126.5055 15.31677150  5710
STARLINK-1577,46063,53.1607,0.0001136,15.30284535,474.18416264326424,475.7411868893705,1 46063U 20055AN  26104.84189807  .00011567  00000+0  40102-3 0  9998,2 46063  53.1607 305.9110 0001136  89.6924 270.4207 15.30284535314603
STARLINK-1583,46064,53.1588,0.00013,15.30190294,474.3531104024996,476.13498947548305,1 46064U 20055AP  26104.81249157  .00001129  00000+0  50267-4 0  9998,2 46064  53.1588 306.0789 0001300 103.6098 256.5048 15.30190294314592
STARLINK-1536,46070,53.115,0.000207,15.23047711,495.23096152373546,498.0771250156495,1 46070U 20055AV  26104.91668980  .00067675  00000+0  28251-2 0  9999,2 46070  53.1150 293.0950 0002070  86.9420  77.0640 15.23047711  5763
STARLINK-1542,46073,53.0553,0.0001453,15.06393363,546.2256433609673,548.2381555631509,1 46073U 20055AY  26104.23832946 -.00000065  00000+0  14560-4 0  9993,2 46073  53.0553 297.0336 0001453  95.0047 265.1107 15.06393363314662
STARLINK-1549,46074,53.0517,4.97e-05,15.25540523,488.8215216301696,489.50413123291673,1 46074U 20055AZ  26104.82001117  .00042684  00000+0  16648-2 0  9996,2 46074  53.0517 293.0135 0000497 351.6053   8.4936 15.25540523314763
STARLINK-1551,46075,53.1563,0.0001241,15.29354565,476.889734342637,478.59136315023534,1 46075U 20055BA  26104.83335647  .00001369  00000+0  59766-4 0  9991,2 46075  53.1563 293.1016 0001241  84.5752 180.0579 15.29354565  5840
STARLINK-1552,46076,53.155,7.9e-05,15.29340531,477.2408730358529,478.3241083153798,1 46076U 20055BB  26104.91668980  .00037982  00000+0  13225-2 0  9998,2 46076  53.1550 292.6941 0000790 103.9270 131.9611 15.29340531  5757
STARLINK-1559,46077,53.0243,0.0001634,15.33408294,464.5341127018146,466.77066307377663,1 46077U 20055BC  26104.84493226  .00031025  00000+0  95489-3 0  9995,2 46077  53.0243 265.1574 0001634 189.3601 170.7370 15.33408294315121
STARLINK-1566,46079,53.1538,0.0001213,15.29337259,476.96064522724373,478.6238936680111,1 46079U 20055BE  26104.91668980  .00036943  00000+0  12869-2 0  9990,2 46079  53.1538 292.6687 0001213 103.5229  46.3557 15.29337259  5700
STARLINK-1568,46080,53.0609,0.0004295,15.49427993,415.4791744788099,421.31739828981426,1 46080U 20055BF  26104.58489762  .00024777  00000+0  45013-3 0  9994,2 46080  53.0609 221.2995 0004295 264.7179  95.3338 15.49427993315754
STARLINK-1578,46082,53.1224,0.0002184,15.24862185,489.69903381174845,492.69955990621656,1 46082U 20055BH  26104.83335647  .00032156  00000+0  12851-2 0  9999,2 46082  53.1224 293.3944 0002184  80.2817  50.0746 15.24862185  5845
STARLINK-1579,46083,53.1542,0.00013,15.29350773,476.86061587732,478.64314698649105,1 46083U 20055BJ  26104.83335647  .00000093  00000+0  15548-4 0  9993,2 46083  53.1542 293.1409 0001300 112.0345 331.5210 15.29350773  5744
STARLINK-1593,46119,53.0354,0.0005079,15.91678315,294.19540643455275,300.97660586419806,1 46119U 20057C   26104.83335647  .00253976  35182-4  76891-3 0  9996,2 46119  53.0354  88.3990 0005079  70.8936  97.3267 15.91678315  6066
STARLINK-1621,46127,53.036,0.0004248,15.98287502,276.3417854229274,281.99783328815556,1 46127U 20057L   26104.83335647  .00436199  90790-4  92077-3 0  9995,2 46127  53.0360  60.6179 0004248  89.4502 202.3135 15.98287502  6069
STARLINK-1622,46128,53.0213,0.0001997,15.7102122,354.6323480871224,357.3219532789053,1 46128U 20057M   26104.14596088  .00088164  00000+0  68625-3 0  9995,2 46128  53.0213  49.4119 0001997  21.2066 338.9033 15.71021220312925
STARLINK-1623,46129,53.0454,0.000303,15.60705792,383.5677300638199,387.66656507724747,1 46129U 20057N   26104.65795932  .00083094  00000+0  97839-3 0  9997,2 46129  53.0454  81.6760 0003030  13.5710 346.5384 15.60705792312524
STARLINK-1624,46130,53.0382,0.0007867,15.80657371,323.30433558755885,333.8566849181898,1 46130U 20057P   26104.91668980  .00076125  00000+0  38889-3 0  9997,2 46130  53.0382  52.1702 0007867  97.5187 263.4845 15.80657371  5896
STARLINK-1596,46141,53.0393,0.0002028,15.50911115,412.6871609841228,415.4420779609809,1 46141U 20057AA  26104.84402205  .00055431  00000+0  94268-3 0  9997,2 46141  53.0393  57.8573 0002028  90.5173 269.6068 15.50911115312870
STARLINK-1597,46142,53.0435,0.0004855,15.64701024,370.82053650218677,377.3769574124817,1 46142U 20057AB  26104.77566541  .00050383  00000+0  51177-3 0  9997,2 46142  53.0435 120.9997 0004855 347.7039  12.3856 15.64701024311977
